{
  "norad_id": 63758,
  "name": "STARLINK-11705 [DTC]",
  "history": [
    {
      "epoch": "2026-03-28T13:46:28.549056Z",
      "apogee_km": 358.11355079470195,
      "perigee_km": 353.83065740449456,
      "latitude_deg": 3.5344297820505005e-05,
      "longitude_deg": 145.96944489158048,
      "height_km": 356.46335445962416,
      "semi_major_axis_km": 6734.109104099598,
      "eccentricity": 0.000318,
      "inclination_deg": 43.0021,
      "raan_deg": 178.5808,
      "arg_perigee_deg": 250.4232,
      "mean_anomaly_deg": 109.6293,
      "mean_motion_rev_day": 15.71022986
    }
  ]
}